[{"OBJECT_NAME":"FLOCK 4BE-26","OBJECT_ID":"2024-149S","EPOCH":"2026-03-09T22:48:38.352960","MEAN_MOTION":15.44367712,"ECCENTRICITY":0.00061541,"INCLINATION":97.3752,"RA_OF_ASC_NODE":151.807,"ARG_OF_PERICENTER":241.3498,"MEAN_ANOMALY":118.7132,"EPHEMERIS_TYPE":0,"CLASSIFICATION_TYPE":"U","NORAD_CAT_ID":60484,"ELEMENT_SET_NO":999,"REV_AT_EPOCH":8703,"BSTAR":0.002332528,"MEAN_MOTION_DOT":0.0010898,"MEAN_MOTION_DDOT":0},{"OBJECT_NAME":"SITRO-AIS 38","OBJECT_ID":"2024-199BD","EPOCH":"2026-03-09T22:34:15.325824","MEAN_MOTION":15.44670327,"ECCENTRICITY":0.00093221,"INCLINATION":97.3106,"RA_OF_ASC_NODE":302.3939,"ARG_OF_PERICENTER":297.2453,"MEAN_ANOMALY":62.7846,"EPHEMERIS_TYPE":0,"CLASSIFICATION_TYPE":"U","NORAD_CAT_ID":61786,"ELEMENT_SET_NO":999,"REV_AT_EPOCH":11897,"BSTAR":0.00043805891,"MEAN_MOTION_DOT":0.00020392,"MEAN_MOTION_DDOT":0}]
